ONEWEB-0536             
1 54148U 22138AM  23316.80596986  .00000144  00000+0  32304-3 0  9997
2 54148  87.9210 103.0605 0002545 113.9299 246.2101 13.20772316 55116
GONETS-M 23             
1 54150U 22139A   23316.80892739  .00000040  00000+0  21743-3 0  9996
2 54150  82.5086 216.9734 0021400 126.5079 233.7976 12.42892634 47958
GONETS-M 24             
1 54151U 22139B   23316.78003013  .00000036  00000+0  18584-3 0  9997
2 54151  82.5005 216.6892 0016171 135.2115 225.0273 12.42891707 47953
GONETS-M 25             
1 54152U 22139C   23316.76680442  .00000036  00000+0  18762-3 0  9991
2 54152  82.5069 216.8786 0019973 135.1137 225.1562 12.42882503 47950
SKIF-D                  
1 54153U 22139D   23316.52754292  .00000024  00000+0  00000+0 0  9990
2 54153  89.9988  96.7921 0008011 106.7622 253.3624  5.00434309 16694
STARLINK-5290           
1 54157U 22141A   23316.46687781 -.00000832  00000+0 -34205-4 0  9996
2 54157  53.2162 221.9965 0001582  82.0210 278.0962 15.08826074 57665
STARLINK-5297           
1 54158U 22141B   23316.47425288  .00001447  00000+0  10900-3 0  9996
2 54158  53.2187 222.0437 0001834  81.4859 278.6341 15.08840915 57668
STARLINK-5294           
1 54159U 22141C   23316.07313175 -.00000038  00000+0  15707-4 0  9991
2 54159  53.2178 223.8104 0001814  88.5869 271.5331 15.08836789 57605
STARLINK-5233           
1 54160U 22141D   23316.78196926  .00001903  00000+0  13761-3 0  9992
2 54160  53.2162 175.4947 0001330  95.4547 264.6597 15.08836775 58344
STARLINK-5269           
1 54161U 22141E   23316.47152236  .00001100  00000+0  87164-4 0  9993
2 54161  53.2166 222.0253 0001408  94.7655 265.3498 15.08841337 57668
STARLINK-5273           
1 54162U 22141F   23316.46319634  .00000129  00000+0  26168-4 0  9997
2 54162  53.2172 221.9763 0001294  96.8245 263.2895 15.08841469 57665
STARLINK-5161           
1 54163U 22141G   23316.01149590  .00002448  00000+0  17183-3 0  9993
2 54163  53.2160 214.1527 0001678  90.0365 270.0820 15.08842103 57738
STARLINK-5278           
1 54164U 22141H   23316.41262124  .00000716  00000+0  63063-4 0  9992
2 54164  53.2171 212.3904 0001429  95.3480 264.7675 15.08837898 57799
STARLINK-5279           
1 54165U 22141J   23316.45950874  .00002638  00000+0  18380-3 0  9999
2 54165  53.2170 221.9509 0001404  89.0596 271.0557 15.08839017 57668
STARLINK-5280           
1 54166U 22141K   23316.00780848  .00000039  00000+0  20572-4 0  9993
2 54166  53.2163 214.1287 0001423  82.0730 278.0423 15.08840052 57730
STARLINK-5243           
1 54167U 22141L   23316.44108502  .00001348  00000+0  10279-3 0  9999
2 54167  53.2156 221.8375 0001527  97.2546 262.8620 15.08842139 57664
STARLINK-5245           
1 54168U 22141M   23316.73276730  .00002263  00000+0  16024-3 0  9992
2 54168  53.2175 210.8374 0001382  99.1715 260.9433 15.08839118 57845
STARLINK-5282           
1 54169U 22141N   23316.41621701  .00002373  00000+0  16711-3 0  9995
2 54169  53.2160 211.7171 0001513 117.6538 242.4608 15.08840636 57802
STARLINK-5155           
1 54170U 22141P   23316.13291830  .00002180  00000+0  15501-3 0  9994
2 54170  53.2172 213.4908 0001616  94.2732 265.8445 15.08845039 57758
STARLINK-5229           
1 54171U 22141Q   23316.11587377 -.00000559  00000+0 -17049-4 0  9997
2 54171  53.2172 218.3670 0001499  95.2198 264.8965 15.08838285 57688
STARLINK-5117           
1 54172U 22141R   23316.45675354  .00004487  00000+0  29981-3 0  9997
2 54172  53.2174 211.9585 0001704  89.8001 270.3186 15.08839983 57803
STARLINK-5242           
1 54173U 22141S   23316.41990220 -.00004104  00000+0 -23999-3 0  9997
2 54173  53.2172 211.7335 0001424  98.5217 261.5937 15.08823609 57802
STARLINK-5248           
1 54174U 22141T   23316.29434163  .00001220  00000+0  94721-4 0  9999
2 54174  53.2141 157.4553 0001430  97.9998 262.1157 15.08839061 58556
STARLINK-5256           
1 54175U 22141U   23316.12923272  .00004934  00000+0  32781-3 0  9998
2 54175  53.2173 213.4664 0001869  94.7167 265.4038 15.08847834 57759
STARLINK-5154           
1 54176U 22141V   23316.44569791  .00002838  00000+0  19630-3 0  9995
2 54176  53.2166 211.8907 0001490 103.6065 256.5093 15.08840659 57807
STARLINK-5186           
1 54177U 22141W   23316.45306846  .00005231  00000+0  34649-3 0  9994
2 54177  53.2169 211.9366 0001734  93.8256 266.2935 15.08840382 57800
STARLINK-5164           
1 54178U 22141X   23316.43095623 -.00000267  00000+0  12879-5 0  9999
2 54178  53.2170 211.7792 0001471  90.1779 269.9381 15.08838415 57801
STARLINK-5122           
1 54179U 22141Y   23316.44938092  .00000825  00000+0  69899-4 0  9999
2 54179  53.2166 211.9103 0001577 102.9766 257.1403 15.08838068 57808
STARLINK-5228           
1 54180U 22141Z   23316.42727819  .00000510  00000+0  50157-4 0  9990
2 54180  53.2190 211.7757 0001356  92.0720 268.0427 15.08836362 57806
STARLINK-5227           
1 54181U 22141AA  23316.70329272  .00002233  00000+0  15835-3 0  9990
2 54181  53.2167 210.6546 0001380  95.0852 265.0298 15.08833676 58079
