OBJECT_NAME,OBJECT_ID,EPOCH,MEAN_MOTION,ECCENTRICITY,INCLINATION,RA_OF_ASC_NODE,ARG_OF_PERICENTER,MEAN_ANOMALY,EPHEMERIS_TYPE,CLASSIFICATION_TYPE,NORAD_CAT_ID,ELEMENT_SET_NO,REV_AT_EPOCH,BSTAR,MEAN_MOTION_DOT,MEAN_MOTION_DDOT
ONEWEB-0536,2022-138AM,2023-11-12T19:20:35.795904,13.20772316,.0002545,87.9210,103.0605,113.9299,246.2101,0,U,54148,999,5511,.32304E-3,.144E-5,0
GONETS-M 23,2022-139A,2023-11-12T19:24:51.326496,12.42892634,.00214,82.5086,216.9734,126.5079,233.7976,0,U,54150,999,4795,.21743E-3,.4E-6,0
GONETS-M 24,2022-139B,2023-11-12T18:43:14.603232,12.42891707,.0016171,82.5005,216.6892,135.2115,225.0273,0,U,54151,999,4795,.18584E-3,.36E-6,0
GONETS-M 25,2022-139C,2023-11-12T18:24:11.901888,12.42882503,.0019973,82.5069,216.8786,135.1137,225.1562,0,U,54152,999,4795,.18762E-3,.36E-6,0
SKIF-D,2022-139D,2023-11-12T12:39:39.708288,5.00434309,.0008011,89.9988,96.7921,106.7622,253.3624,0,U,54153,999,1669,0,.24E-6,0
STARLINK-5290,2022-141A,2023-11-12T11:12:18.242784,15.08826074,.0001582,53.2162,221.9965,82.0210,278.0962,0,U,54157,999,5766,-.34205E-4,-.832E-5,0
STARLINK-5297,2022-141B,2023-11-12T11:22:55.448832,15.08840915,.0001834,53.2187,222.0437,81.4859,278.6341,0,U,54158,999,5766,.109E-3,.1447E-4,0
STARLINK-5294,2022-141C,2023-11-12T01:45:18.583200,15.08836789,.0001814,53.2178,223.8104,88.5869,271.5331,0,U,54159,999,5760,.15707E-4,-.38E-6,0
STARLINK-5233,2022-141D,2023-11-12T18:46:02.144064,15.08836775,.000133,53.2162,175.4947,95.4547,264.6597,0,U,54160,999,5834,.13761E-3,.1903E-4,0
STARLINK-5269,2022-141E,2023-11-12T11:18:59.531904,15.08841337,.0001408,53.2166,222.0253,94.7655,265.3498,0,U,54161,999,5766,.87164E-4,.11E-4,0
STARLINK-5273,2022-141F,2023-11-12T11:07:00.163776,15.08841469,.0001294,53.2172,221.9763,96.8245,263.2895,0,U,54162,999,5766,.26168E-4,.129E-5,0
STARLINK-5161,2022-141G,2023-11-12T00:16:33.245760,15.08842103,.0001678,53.2160,214.1527,90.0365,270.0820,0,U,54163,999,5773,.17183E-3,.2448E-4,0
STARLINK-5278,2022-141H,2023-11-12T09:54:10.475136,15.08837898,.0001429,53.2171,212.3904,95.3480,264.7675,0,U,54164,999,5779,.63063E-4,.716E-5,0
STARLINK-5279,2022-141J,2023-11-12T11:01:41.555136,15.08839017,.0001404,53.2170,221.9509,89.0596,271.0557,0,U,54165,999,5766,.1838E-3,.2638E-4,0
STARLINK-5280,2022-141K,2023-11-12T00:11:14.652672,15.08840052,.0001423,53.2163,214.1287,82.0730,278.0423,0,U,54166,999,5773,.20572E-4,.39E-6,0
STARLINK-5243,2022-141L,2023-11-12T10:35:09.745728,15.08842139,.0001527,53.2156,221.8375,97.2546,262.8620,0,U,54167,999,5766,.10279E-3,.1348E-4,0
STARLINK-5245,2022-141M,2023-11-12T17:35:11.094720,15.08839118,.0001382,53.2175,210.8374,99.1715,260.9433,0,U,54168,999,5784,.16024E-3,.2263E-4,0
STARLINK-5282,2022-141N,2023-11-12T09:59:21.149664,15.08840636,.0001513,53.2160,211.7171,117.6538,242.4608,0,U,54169,999,5780,.16711E-3,.2373E-4,0
STARLINK-5155,2022-141P,2023-11-12T03:11:24.141120,15.08845039,.0001616,53.2172,213.4908,94.2732,265.8445,0,U,54170,999,5775,.15501E-3,.218E-4,0
STARLINK-5229,2022-141Q,2023-11-12T02:46:51.493728,15.08838285,.0001499,53.2172,218.3670,95.2198,264.8965,0,U,54171,999,5768,-.17049E-4,-.559E-5,0
STARLINK-5117,2022-141R,2023-11-12T10:57:43.505856,15.08839983,.0001704,53.2174,211.9585,89.8001,270.3186,0,U,54172,999,5780,.29981E-3,.4487E-4,0
STARLINK-5242,2022-141S,2023-11-12T10:04:39.550080,15.08823609,.0001424,53.2172,211.7335,98.5217,261.5937,0,U,54173,999,5780,-.23999E-3,-.4104E-4,0
STARLINK-5248,2022-141T,2023-11-12T07:03:51.116832,15.08839061,.000143,53.2141,157.4553,97.9998,262.1157,0,U,54174,999,5855,.94721E-4,.122E-4,0
STARLINK-5256,2022-141U,2023-11-12T03:06:05.707008,15.08847834,.0001869,53.2173,213.4664,94.7167,265.4038,0,U,54175,999,5775,.32781E-3,.4934E-4,0
STARLINK-5154,2022-141V,2023-11-12T10:41:48.299424,15.08840659,.000149,53.2166,211.8907,103.6065,256.5093,0,U,54176,999,5780,.1963E-3,.2838E-4,0
STARLINK-5186,2022-141W,2023-11-12T10:52:25.114944,15.08840382,.0001734,53.2169,211.9366,93.8256,266.2935,0,U,54177,999,5780,.34649E-3,.5231E-4,0
STARLINK-5164,2022-141X,2023-11-12T10:20:34.618272,15.08838415,.0001471,53.2170,211.7792,90.1779,269.9381,0,U,54178,999,5780,.12879E-5,-.267E-5,0
STARLINK-5122,2022-141Y,2023-11-12T10:47:06.511488,15.08838068,.0001577,53.2166,211.9103,102.9766,257.1403,0,U,54179,999,5780,.69899E-4,.825E-5,0
STARLINK-5228,2022-141Z,2023-11-12T10:15:16.835616,15.08836362,.0001356,53.2190,211.7757,92.0720,268.0427,0,U,54180,999,5780,.50157E-4,.51E-5,0
STARLINK-5227,2022-141AA,2023-11-12T16:52:44.491008,15.08833676,.000138,53.2167,210.6546,95.0852,265.0298,0,U,54181,999,5807,.15835E-3,.2233E-4,0
